{
  "type": "FeatureCollection",
  "features": [
    {
      "type": "Feature",
      "properties": {
        "norad_id": 2807,
        "name": "OPS 7218 (TRANSIT 16)",
        "group": "nnss",
        "lat": 63.69773145057523,
        "lon": -5.037960988977736,
        "alt_km": 1058.865786292552,
        "timestamp": "2025-12-04T03:47:54.811782+00:00",
        "meta_object_name": "OPS 7218 (TRANSIT 16)",
        "meta_object_id": "1967-048A",
        "meta_epoch": "2025-12-03T12:06:54.103104",
        "meta_mean_motion": 13.50719477,
        "meta_eccentricity": 0.0021476,
        "meta_inclination": 89.6735,
        "meta_ra_of_asc_node": 354.3226,
        "meta_arg_of_pericenter": 138.9624,
        "meta_mean_anomaly": 349.3026,
        "meta_ephemeris_type": 0,
        "meta_classification_type": "U",
        "meta_norad_cat_id": 2807,
        "meta_element_set_no": 999,
        "meta_rev_at_epoch": 88151,
        "meta_bstar": 0.00022718,
        "meta_mean_motion_dot": 1.57e-06,
        "meta_mean_motion_ddot": 0,
        "tle_line1": "1 02807U 67048A   25337.50479286  .00000157  00000+0  22718-3 0  9998",
        "tle_line2": "2 02807  89.6735 354.3226 0021476 138.9624 349.3026 13.50719477881519"
      },
      "geometry": {
        "type": "Point",
        "coordinates": [
          -5.037960988977736,
          63.69773145057523
        ]
      }
    },
    {
      "type": "Feature",
      "properties": {
        "norad_id": 2965,
        "name": "OPS 4947 (TRANSIT 17)",
        "group": "nnss",
        "lat": 44.430060068382915,
        "lon": 25.825039704785343,
        "alt_km": 1083.4059867945216,
        "timestamp": "2025-12-04T03:47:54.811804+00:00",
        "meta_object_name": "OPS 4947 (TRANSIT 17)",
        "meta_object_id": "1967-092A",
        "meta_epoch": "2025-12-03T09:53:28.687776",
        "meta_mean_motion": 13.53450021,
        "meta_eccentricity": 0.0045778,
        "meta_inclination": 89.2506,
        "meta_ra_of_asc_node": 25.1466,
        "meta_arg_of_pericenter": 262.5485,
        "meta_mean_anomaly": 108.3355,
        "meta_ephemeris_type": 0,
        "meta_classification_type": "U",
        "meta_norad_cat_id": 2965,
        "meta_element_set_no": 999,
        "meta_rev_at_epoch": 86971,
        "meta_bstar": 0.00024869,
        "meta_mean_motion_dot": 1.79e-06,
        "meta_mean_motion_ddot": 0,
        "tle_line1": "1 02965U 67092A   25337.41213759  .00000179  00000+0  24869-3 0  9996",
        "tle_line2": "2 02965  89.2506  25.1466 0045778 262.5485 108.3355 13.53450021869711"
      },
      "geometry": {
        "type": "Point",
        "coordinates": [
          25.825039704785343,
          44.430060068382915
        ]
      }
    },
    {
      "type": "Feature",
      "properties": {
        "norad_id": 3133,
        "name": "OPS 7034 (TRANSIT 18)",
        "group": "nnss",
        "lat": -72.39764881924113,
        "lon": 93.53005023263171,
        "alt_km": 1045.0328005532565,
        "timestamp": "2025-12-04T03:47:54.811817+00:00",
        "meta_object_name": "OPS 7034 (TRANSIT 18)",
        "meta_object_id": "1968-012A",
        "meta_epoch": "2025-12-03T09:21:57.300192",
        "meta_mean_motion": 13.51562445,
        "meta_eccentricity": 0.0072979,
        "meta_inclination": 90.0269,
        "meta_ra_of_asc_node": 273.6128,
        "meta_arg_of_pericenter": 196.3448,
        "meta_mean_anomaly": 280.6016,
        "meta_ephemeris_type": 0,
        "meta_classification_type": "U",
        "meta_norad_cat_id": 3133,
        "meta_element_set_no": 999,
        "meta_rev_at_epoch": 56792,
        "meta_bstar": 0.00017779,
        "meta_mean_motion_dot": 1.27e-06,
        "meta_mean_motion_ddot": 0,
        "tle_line1": "1 03133U 68012A   25337.39024653  .00000127  00000+0  17779-3 0  9992",
        "tle_line2": "2 03133  90.0269 273.6128 0072979 196.3448 280.6016 13.51562445567924"
      },
      "geometry": {
        "type": "Point",
        "coordinates": [
          93.53005023263171,
          -72.39764881924113
        ]
      }
    },
    {
      "type": "Feature",
      "properties": {
        "norad_id": 4507,
        "name": "NNSS 19 (TRANSIT 19)",
        "group": "nnss",
        "lat": -48.98279714454239,
        "lon": 54.52126225554902,
        "alt_km": 1071.1417541053288,
        "timestamp": "2025-12-04T03:47:54.811829+00:00",
        "meta_object_name": "NNSS 19 (TRANSIT 19)",
        "meta_object_id": "1970-067A",
        "meta_epoch": "2025-12-03T10:39:33.759936",
        "meta_mean_motion": 13.51311161,
        "meta_eccentricity": 0.0171187,
        "meta_inclination": 90.0056,
        "meta_ra_of_asc_node": 234.5273,
        "meta_arg_of_pericenter": 320.5051,
        "meta_mean_anomaly": 38.3724,
        "meta_ephemeris_type": 0,
        "meta_classification_type": "U",
        "meta_norad_cat_id": 4507,
        "meta_element_set_no": 999,
        "meta_rev_at_epoch": 72096,
        "meta_bstar": 0.00028364,
        "meta_mean_motion_dot": 2.1e-06,
        "meta_mean_motion_ddot": 0,
        "tle_line1": "1 04507U 70067A   25337.44414074  .00000210  00000+0  28364-3 0  9992",
        "tle_line2": "2 04507  90.0056 234.5273 0171187 320.5051  38.3724 13.51311161720969"
      },
      "geometry": {
        "type": "Point",
        "coordinates": [
          54.52126225554902,
          -48.98279714454239
        ]
      }
    },
    {
      "type": "Feature",
      "properties": {
        "norad_id": 6909,
        "name": "NNSS 20 (TRANSIT 20)",
        "group": "nnss",
        "lat": 41.221625504108474,
        "lon": -104.69063996236117,
        "alt_km": 936.3391634657946,
        "timestamp": "2025-12-04T03:47:54.811840+00:00",
        "meta_object_name": "NNSS 20 (TRANSIT 20)",
        "meta_object_id": "1973-081A",
        "meta_epoch": "2025-12-03T11:50:21.755040",
        "meta_mean_motion": 13.71427816,
        "meta_eccentricity": 0.0156481,
        "meta_inclination": 89.8557,
        "meta_ra_of_asc_node": 255.1929,
        "meta_arg_of_pericenter": 105.6968,
        "meta_mean_anomaly": 256.1519,
        "meta_ephemeris_type": 0,
        "meta_classification_type": "U",
        "meta_norad_cat_id": 6909,
        "meta_element_set_no": 999,
        "meta_rev_at_epoch": 80234,
        "meta_bstar": 0.00028959,
        "meta_mean_motion_dot": 2.96e-06,
        "meta_mean_motion_ddot": 0,
        "tle_line1": "1 06909U 73081A   25337.49330735  .00000296  00000+0  28959-3 0  9999",
        "tle_line2": "2 06909  89.8557 255.1929 0156481 105.6968 256.1519 13.71427816802347"
      },
      "geometry": {
        "type": "Point",
        "coordinates": [
          -104.69063996236117,
          41.221625504108474
        ]
      }
    },
    {
      "type": "Feature",
      "properties": {
        "norad_id": 10457,
        "name": "TRANSAT",
        "group": "nnss",
        "lat": -50.824318970416535,
        "lon": 78.4687246204495,
        "alt_km": 1084.4996037195206,
        "timestamp": "2025-12-04T03:47:54.811850+00:00",
        "meta_object_name": "TRANSAT",
        "meta_object_id": "1977-106A",
        "meta_epoch": "2025-12-03T19:44:22.543296",
        "meta_mean_motion": 13.48941362,
        "meta_eccentricity": 0.0024587,
        "meta_inclination": 89.6482,
        "meta_ra_of_asc_node": 78.9126,
        "meta_arg_of_pericenter": 215.8171,
        "meta_mean_anomaly": 263.4628,
        "meta_ephemeris_type": 0,
        "meta_classification_type": "U",
        "meta_norad_cat_id": 10457,
        "meta_element_set_no": 999,
        "meta_rev_at_epoch": 36623,
        "meta_bstar": 0.00015959,
        "meta_mean_motion_dot": 1.1e-06,
        "meta_mean_motion_ddot": 0,
        "tle_line1": "1 10457U 77106A   25337.82248314  .00000110  00000+0  15959-3 0  9993",
        "tle_line2": "2 10457  89.6482  78.9126 0024587 215.8171 263.4628 13.48941362366232"
      },
      "geometry": {
        "type": "Point",
        "coordinates": [
          78.4687246204495,
          -50.824318970416535
        ]
      }
    },
    {
      "type": "Feature",
      "properties": {
        "norad_id": 12458,
        "name": "NOVA 1",
        "group": "nnss",
        "lat": -77.66469044118547,
        "lon": 90.8302173800981,
        "alt_km": 1190.5496031081266,
        "timestamp": "2025-12-04T03:47:54.811861+00:00",
        "meta_object_name": "NOVA 1",
        "meta_object_id": "1981-044A",
        "meta_epoch": "2025-12-03T19:41:31.515360",
        "meta_mean_motion": 13.23276887,
        "meta_eccentricity": 0.0015607,
        "meta_inclination": 89.8522,
        "meta_ra_of_asc_node": 91.5113,
        "meta_arg_of_pericenter": 125.9571,
        "meta_mean_anomaly": 348.2008,
        "meta_ephemeris_type": 0,
        "meta_classification_type": "U",
        "meta_norad_cat_id": 12458,
        "meta_element_set_no": 999,
        "meta_rev_at_epoch": 15068,
        "meta_bstar": 0.0001399,
        "meta_mean_motion_dot": 6.8e-07,
        "meta_mean_motion_ddot": 0,
        "tle_line1": "1 12458U 81044A   25337.82050365  .00000068  00000+0  13990-3 0  9994",
        "tle_line2": "2 12458  89.8522  91.5113 0015607 125.9571 348.2008 13.23276887150687"
      },
      "geometry": {
        "type": "Point",
        "coordinates": [
          90.8302173800981,
          -77.66469044118547
        ]
      }
    }
  ]
}